INTELSAT 701 (IS-701)   
1 22871U 93066A   16070.37715907 -.00000235  00000-0  00000+0 0  9997
2 22871   3.3139  69.5425 0003435 282.2008 282.9864  1.00272124 81747
INTELSAT 702 (IS-702)   
1 23124U 94034A   16069.63202579  .00000134  00000-0  00000+0 0  9995
2 23124   3.6586  67.7891 0001459 226.2435 134.1182  1.00273671 93765
INTELSAT 26 (IS-26)     
1 24732U 97007A   16071.04429363  .00000005  00000-0  00000+0 0  9991
2 24732   6.7227  53.5648 0003588 313.3480 240.3344  1.00272872 69678
GALAXY 25 (G-25)        
1 24812U 97026A   16069.79215712 -.00000183  00000-0  00000+0 0  9999
2 24812   0.0291 263.4419 0003252  79.6442  16.8839  1.00269424 68742
INTELSAT 5 (IS-5)       
1 24916U 97046A   16070.30163964  .00000000  00000-0  10000-3 0  9998
2 24916   2.6389  73.4548 0003257 267.2260  93.2713  1.00266773 68006
INTELSAT 805 (IS-805)   
1 25371U 98037A   16070.33797230 -.00000053  00000-0  00000+0 0  9991
2 25371   0.0496 295.4822 0003490  16.9639 146.6412  1.00271513 64959
INTELSAT 7 (IS-7)       
1 25473U 98052A   16071.14329087 -.00000075  00000-0  00000+0 0  9996
2 25473   2.2970  76.3000 0002847 101.6108 259.0300  0.98210657 64048
AFRISTAR                
1 25515U 98063A   16071.13240462  .00000104  00000-0  00000+0 0  9995
2 25515   2.4055  70.8187 0004474 281.9861 245.0579  1.00269886 63529
INTELSAT 8 (IS-8)       
1 25522U 98065A   16070.45346362 -.00000053  00000-0  00000+0 0  9999
2 25522   0.0576  88.3976 0003158 281.9912 130.3790  1.00272193 63519
GALAXY 27 (G-27)        
1 25922U 99052A   16070.55849582  .00000000  00000-0  10000-3 0  9999
2 25922   2.3078  75.4270 0005227 254.3884 106.1660  1.00271312 60280
GALAXY 11 (G-11)        
1 26038U 99071A   16071.04504420  .00000128  00000-0  00000+0 0  9999
2 26038   0.0623  97.3978 0007320 242.1780 229.3956  1.00512411 59501
SIRIUS-1                
1 26390U 00035A   16069.35958800  .00000041  00000-0  00000+0 0  9992
2 26390  59.6773 233.6951 2580315 267.0345  63.0123  1.00272603 57467
INTELSAT 9 (IS-9)       
1 26451U 00043A   16070.20312719 -.00000290  00000-0  00000+0 0  9995
2 26451   2.6246  73.6820 0001963 272.1541 212.4710  1.00270595 57230
SIRIUS-2                
1 26483U 00051A   16069.44575422  .00000058  00000-0  00000+0 0  9996
2 26483  64.4916 113.8304 2820153 266.5278 216.1732  1.00272584 56813
INTELSAT 12 (IS-12)     
1 26590U 00068A   16071.11636359  .00000114  00000-0  00000+0 0  9990
2 26590   0.0350 252.8643 0003322 104.1045 259.0999  1.00270473 56195
INTELSAT 1R (IS-1R)     
1 26608U 00072A   16071.16799237 -.00000305  00000-0  00000+0 0  9998
2 26608   0.0420 277.8151 0001105  11.8030 250.0981  1.00272601 56051
SIRIUS-3                
1 26626U 00077A   16063.71057474 -.00000108  00000-0  00000+0 0  9996
2 26626  64.4185 353.6229 2661808 268.6621  61.1147  1.00281106 55890
XM-1 (ROLL)             
1 26761U 01018A   16070.51099980 -.00000029  00000-0  00000+0 0  9998
2 26761   0.1014  90.4450 0000723 193.0131 333.9951  0.99139794 54410
INTELSAT 10 (IS-10)     
1 26766U 01019A   16070.64826477  .00000000  00000-0  10000-3 0  9990
2 26766   0.5539  87.1403 0002586 265.6066  96.8863  1.00271489 54322
INTELSAT 901 (IS-901)   
1 26824U 01024A   16070.84353602 -.00000163  00000-0  00000+0 0  9994
2 26824   0.0200 104.1267 0002504 250.9803  99.4675  1.00272269 53990
INTELSAT 902 (IS-902)   
1 26900U 01039A   16071.12028981  .00000010  00000-0  00000+0 0  9996
2 26900   0.0069  71.1239 0003485 301.8463 261.5001  1.00271602 53161
DIRECTV 4S              
1 26985U 01052A   16070.45591059 -.00000135  00000-0  00000+0 0  9999
2 26985   0.0266 252.3016 0002013 104.2087 234.9458  1.00270833 52380
INTELSAT 904 (IS-904)   
1 27380U 02007A   16071.11412699  .00000026  00000-0  00000+0 0  9994
2 27380   0.0445 305.6396 0003063  51.4495 273.1686  1.00271352 51489
INTELSAT 903 (IS-903)   
1 27403U 02016A   16070.40623228 -.00000260  00000-0  00000+0 0  9994
2 27403   0.0201 180.3989 0003032 162.7008 297.1334  1.00268303 51032
DIRECTV 5 (TEMPO 1)     
1 27426U 02023A   16068.84210214 -.00000075  00000-0  00000+0 0  9993
2 27426   0.0136 119.8687 0002962 232.0149   8.0930  1.00270370 50682
INTELSAT 905 (IS-905)   
1 27438U 02027A   16071.14902273 -.00000208  00000-0  00000+0 0  9998
2 27438   0.0529 271.7862 0002875  70.2146 216.3503  1.00271419 50366
GALAXY 3C (G-3C)        
1 27445U 02030A   16070.14011109  .00000000  00000-0  10000-3 0  9992
2 27445   0.0268  88.3631 0002854 317.1038  78.0832  1.00266377 50354
INTELSAT 906 (IS-906)   
1 27513U 02041A   16070.10567277 -.00000007  00000-0  00000+0 0  9991
2 27513   0.0274 254.8402 0003205 102.7779 272.7650  1.00273553 49357
INTELSAT 907 (IS-907)   
1 27683U 03007A   16069.61049748 -.00000223  00000-0  00000+0 0  9994
2 27683   0.0233 112.3779 0003091 239.5810   8.0171  1.00272300 47774
GALAXY 12 (G-12)        
1 27715U 03013B   16070.46575550  .00000037  00000-0  00000+0 0  9999
2 27715   0.0303 244.5898 0001638 108.0234 214.5890  1.00271230 47394
GALAXY 23 (G-23)        
1 27854U 03034A   16070.45540748 -.00000009  00000-0  00000+0 0  9996
2 27854   0.0311 138.6884 0003542 221.7671 211.0296  1.00272572 46019
GALAXY 13 (HORIZONS-1)  
1 27954U 03044A   16070.46566529  .00000026  00000-0  00000+0 0  9992
2 27954   0.0032 179.0443 0001113  99.3975 290.7431  1.00272966 45558
DIRECTV 7S              
1 28238U 04016A   16070.98175322 -.00000022  00000-0  00000+0 0  9999
2 28238   0.0588 299.2739 0003021  60.6642  43.4801  1.00272527 43460
INTELSAT 10-02          
1 28358U 04022A   16070.17774375 -.00000033  00000-0  00000+0 0  9995
2 28358   0.0252 126.5688 0000326 208.9434 255.7397  1.00269160 43015
XM-3 (RHYTHM)           
1 28626U 05008A   16070.45629936 -.00000228  00000-0  00000+0 0  9997
2 28626   0.0438 353.5618 0000033 146.3271 107.8159  1.00271618 40452
SPACEWAY 1              
1 28644U 05015A   16069.16424446 -.00000122  00000-0  00000-0 0  9994
2 28644   0.0366 303.8646 0000252 272.8421 266.7562  1.00271588  8976
DIRECTV 8               
1 28659U 05019A   16070.81101233 -.00000138  00000-0  00000+0 0  9990
2 28659   0.0152 155.5644 0003065 194.5177   9.9119  1.00270315 39581
GALAXY 28 (G-28)        
1 28702U 05022A   16070.57411022 -.00000207  00000-0  00000+0 0  9993
2 28702   0.0193 125.3024 0000948   9.6330 151.3790  1.00273029 39218
GALAXY 14 (G-14)        
1 28790U 05030A   16070.40278863  .00000015  00000-0  00000+0 0  9991
2 28790   0.0481 304.7048 0002395  47.6831 196.1106  1.00273438 38693
GALAXY 15 (G-15)        
1 28884U 05041A   16069.69649519  .00000058  00000-0  00000+0 0  9993
2 28884   0.0367 283.0573 0001596  78.4507 284.0154  1.00273728 38003
SPACEWAY 2              
1 28903U 05046B   16070.13314713 -.00000006  00000-0  10000-3 0  9995
2 28903   0.0241  69.8450 0000164 147.1173 260.0855  1.00267148 37889
GALAXY 16 (G-16)        
1 29236U 06023A   16070.34665103 -.00000149  00000-0  00000+0 0  9999
2 29236   0.0344 227.5501 0002533 102.9665 223.7029  1.00271380 35655
DIRECTV 9S              
1 29494U 06043A   16070.45589535 -.00000136  00000-0  00000+0 0  9999
2 29494   0.0106 199.4257 0003352 153.9035 238.2318  1.00271996 34495
XM-4 (BLUES)            
1 29520U 06049A   16071.19927596 -.00000046  00000-0  00000+0 0  9990
2 29520   0.0087 305.0689 0000185  23.3968 157.2965  1.00270751 34398
GALAXY 17 (G-17)        
1 31307U 07016B   16070.50715528 -.00000196  00000-0  00000+0 0  9991
2 31307   0.0277 341.2968 0003049  23.8816 254.9764  1.00269919 32468
DIRECTV 10              
1 31862U 07032A   16070.81650125 -.00000125  00000-0  00000+0 0  9992
2 31862   0.0139 266.1290 0000371  25.6892  68.1779  1.00268473 31805
SPACEWAY 3              
1 32018U 07036A   16070.13983564 -.00000173  00000-0  00000+0 0  9994
2 32018   0.0176 339.0161 0000174  41.5050 103.0907  1.00271872 31518
INTELSAT 11 (IS-11)     
1 32253U 07044B   16070.09674123 -.00000290  00000-0  00000+0 0  9997
2 32253   0.0377 243.3057 0002676 105.1712 171.5238  1.00270672 30911
HORIZONS-2              
1 32388U 07063B   16071.05658404 -.00000205  00000-0  00000+0 0  9994
2 32388   0.0150 171.4044 0002978 177.4231 285.5261  1.00271596 30276
DIRECTV 11              
1 32729U 08013A   16069.32823153 -.00000146  00000-0  00000-0 0  9996
2 32729   0.0164 336.7731 0000202 196.9959  12.6326  1.00271618  7999
GALAXY 18 (G-18)        
1 32951U 08024A   16070.27406556  .00000000  00000-0  10000-3 0  9997
2 32951   0.0405 133.3695 0003332 249.8189 120.8478  1.00270455 28489
INTELSAT 25 (IS-25)     
1 33153U 08034A   16070.33974008 -.00000246  00000-0  00000+0 0  9990
2 33153   0.0302 260.0184 0003046  70.1047 289.1028  1.00272036 28028
GALAXY 19 (G-19)        
1 33376U 08045A   16070.31671084 -.00000161  00000-0  00000+0 0  9991
2 33376   0.0184 129.3258 0003000 228.4440 187.6372  1.00273024 27220
SIRIUS FM-5             
1 35493U 09034A   16071.08594567 -.00000168  00000-0  00000+0 0  9994
2 35493   0.0480 282.2364 0000142 217.3387 324.5140  1.00272937 24379
INTELSAT 14 (IS-14)     
1 36097U 09064A   16069.65897938 -.00000295  00000-0  00000+0 0  9997
2 36097   0.0184 133.9211 0002009 214.7871  11.2682  1.00270271 23095
INTELSAT 15 (IS-15)     
1 36106U 09067A   16071.05658404 -.00000208  00000-0  00000+0 0  9995
2 36106   0.0556 285.8277 0002207  70.6923 278.1117  1.00270492 22995
DIRECTV 12              
1 36131U 09075A   16070.45587248 -.00000125  00000-0  00000+0 0  9990
2 36131   0.0360 303.8208 0000167   2.6505 283.3678  1.00271511 22774
INTELSAT 16 (IS-16)     
1 36397U 10006A   16070.45328814 -.00000306  00000-0  00000+0 0  9993
2 36397   0.0179 164.9333 0002012 199.4361 265.6680  1.00344336 22128
XM-5                    
1 37185U 10053A   16070.53948905 -.00000227  00000-0  00000+0 0  9991
2 37185   0.0407 296.3366 0000551 286.2902  54.9852  1.00271532 19837
INTELSAT 17 (IS-17)     
1 37238U 10065B   16071.11946649 -.00000024  00000-0  00000+0 0  9996
2 37238   0.0399 258.2227 0003085  99.5591 280.3995  1.00272616 19313
INTELSAT NEW DAWN       
1 37392U 11016A   16070.17458773  .00000134  00000-0  00000+0 0  9996
2 37392   0.0391 253.0483 0000570  30.0201 340.8553  1.00271343 17908
INTELSAT 18 (IS-18)     
1 37834U 11056A   16070.46424433  .00000000  00000-0  10000-3 0  9996
2 37834   0.0293 150.2582 0002428 248.1928 117.2119  1.00269613 16258
INTELSAT 22 (IS-22)     
1 38098U 12011A   16070.62303917  .00000000  00000-0  10000-3 0  9992
2 38098   0.0304  60.2288 0002018 286.1692 118.6965  1.00268639 14442
INTELSAT 19 (IS-19)     
1 38356U 12030A   16070.37723459  .00000000  00000-0  10000-3 0  9999
2 38356   0.0229  49.8114 0003122 310.1158 110.3368  1.00268747 13915
INTELSAT 20 (IS-20)     
1 38740U 12043A   16070.34188102 -.00000046  00000-0  00000+0 0  9993
2 38740   0.0137 130.9664 0000723 313.0850 275.9374  1.00272257 13227
INTELSAT 21 (IS-21)     
1 38749U 12045A   16070.46388428 -.00000307  00000-0  00000+0 0  9990
2 38749   0.0261  80.7881 0002091 286.7648 269.9897  1.00271761 13028
INTELSAT 23 (IS-23)     
1 38867U 12057A   16070.32918538 -.00000307  00000-0  00000+0 0  9990
2 38867   0.0418 265.3321 0002062  93.1320 235.4458  1.00270772 12502
SIRIUS FM-6             
1 39360U 13058A   16070.13476531  .00000000  00000-0  10000-3 0  9996
2 39360   0.0505  74.4619 0000229  91.6515 294.5176  1.00270262  8747
INTELSAT 30 (IS-30)     
1 40271U 14062A   16070.51099980 -.00000173  00000-0  00000+0 0  9993
2 40271   0.0139 150.9386 0000638  29.2433  77.3077  1.00272431  5153
INTELSAT 34             
1 40874U 15039A   16070.10918012 -.00000307  00000-0  00000+0 0  9997
2 40874   0.0143 132.6226 0000694  71.2389 308.1287  1.00269877  2061
INTELSAT 29E            
1 41308U 16004A   16071.21673759 -.00000305  00000-0  00000+0 0  9990
2 41308   0.0777 304.8928 0000348 196.9507  55.7116  1.00268727   553
